LEMUR-2-ORZULAK         
1 43731U 18096N   20027.16937357  .00001357  00000-0  51931-4 0  9993
2 43731  97.4388 102.2245 0018922 269.1848  90.7223 15.28193336 64717
LEMUR-2-KOBYSZCZE       
1 43732U 18096P   20027.19658596  .00001330  00000-0  50722-4 0  9990
2 43732  97.4393 102.3571 0019027 269.3353  90.5706 15.28342445 64729
LEMUR-2-DULY            
1 43745U 18096AC  20026.29284043  .00001922  00000-0  72021-4 0  9999
2 43745  97.4390 101.4042 0018855 272.5173  87.3908 15.28368889 64590
LEMUR-2-VLADIMIR        
1 43746U 18096AD  20026.32742627  .00001553  00000-0  58573-4 0  9997
2 43746  97.4389 101.5028 0018950 272.5597  87.3473 15.28453974 64621
LEMUR-2-CHRISTINAHOLT   
1 43882U 18111G   20027.17222184  .00000564  00000-0  54389-4 0  9993
2 43882  97.7138 297.2647 0012045   7.7852 352.3554 14.96750597 57226
LEMUR-2-TINYKEV         
1 43883U 18111H   20027.15825324  .00000848  00000-0  79089-4 0  9996
2 43883  97.7134 297.2934 0011875   8.2802 351.8613 14.96798627 57229
LEMUR-2-REMY-COLTON     
1 43884U 18111J   20027.15178914  .00000758  00000-0  71126-4 0  9997
2 43884  97.7138 297.3241 0011738   6.9880 353.1503 14.96869067 57236
LEMUR-2-GUSTAVO         
1 43885U 18111K   20027.14541934  .00000423  00000-0  41960-4 0  9995
2 43885  97.7134 297.3354 0011611   5.9511 354.1846 14.96830101 57225
LEMUR-2-ZO              
1 43886U 18111L   20026.25436285 -.00000148  00000-0 -77745-5 0  9996
2 43886  97.7147 296.5305 0011878   8.1814 351.9599 14.96922833 59094
LEMUR-2-NATALIEMURRAY   
1 43887U 18111M   20027.16036183  .00000913  00000-0  84238-4 0  9993
2 43887  97.7146 297.4927 0011624   5.6843 354.4508 14.97039664 59233
LEMUR-2-SARAHBETTYBOO   
1 43888U 18111N   20026.87768641  .00000392  00000-0  38993-4 0  9990
2 43888  97.7147 297.2859 0011552   3.5416 356.5886 14.97086335 59194
LEMUR-2-DAISY-HARPER    
1 43889U 18111P   20027.06047559 -.00000148  00000-0 -77787-5 0  9997
2 43889  97.7152 297.5050 0011774   2.5917 357.5363 14.97168363 59214
LEMUR-2-JOHANLORAN      
1 44084U 19018G   20026.74691090  .00001530  00000-0  69056-4 0  9994
2 44084  97.4305  89.3638 0012114 314.0329  45.9908 15.22472524 45691
LEMUR-2-BEAUDACIOUS     
1 44085U 19018H   20026.74430955  .00001477  00000-0  66772-4 0  9998
2 44085  97.4303  89.3688 0012115 315.0263  44.9991 15.22457793 45685
LEMUR-2-ELHAM           
1 44086U 19018J   20027.11779095  .00001662  00000-0  74334-4 0  9991
2 44086  97.4309  89.8046 0012195 313.8436  46.1792 15.22666687 45745
LEMUR-2-VICTOR-ANDREW   
1 44087U 19018K   20027.10997869  .00001675  00000-0  74796-4 0  9998
2 44087  97.4308  89.8138 0012037 314.7939  45.2318 15.22698676 45758
LEMUR-2-LILLYJO         
1 44396U 19038L   20027.11752107  .00001070  00000-0  65308-4 0  9996
2 44396  97.5158 350.3736 0023236 256.7621 103.1018 15.12265016 31068
LEMUR-2-WANLI           
1 44402U 19038S   20026.86184415  .00001060  00000-0  64850-4 0  9996
2 44402  97.5163 350.1171 0023354 258.0657 101.7955 15.12200856 31030
LEMUR-2-MORAG           
1 44403U 19038T   20026.86012614  .00001109  00000-0  67684-4 0  9990
2 44403  97.5195 350.1933 0022125 261.6517  98.2204 15.12223448 31031
LEMUR-2-DUSTINTHEWIND   
1 44405U 19038V   20027.11203071  .00001286  00000-0  77566-4 0  9996
2 44405  97.5152 350.3654 0023207 256.5410 103.3234 15.12326993 31079
LEMUR-2-ALEX-MADDY      
1 44407U 19038X   20027.12866646  .00000751  00000-0  47155-4 0  9999
2 44407  97.5197 350.4433 0022160 260.9815  98.8907 15.12125992 31061
LEMUR-2-EJATTA          
1 44409U 19038Z   20026.83449038  .00001365  00000-0  81878-4 0  9992
2 44409  97.5148 350.1103 0023073 257.0402 102.8252 15.12441043 31037
LEMUR-2-GREGROBINSON    
1 44411U 19038AB  20026.87029932  .00001199  00000-0  72946-4 0  9997
2 44411  97.5205 350.2020 0022247 262.4437  97.4266 15.12163404 30702
LEMUR-2-YNDRD           
1 44413U 19038AD  20026.85547982  .00000678  00000-0  42936-4 0  9994
2 44413  97.5189 350.1763 0022013 261.6903  98.1831 15.12167973 31036
LEMUR-2-JPGSQUARED      
1 44855U 19089D   20026.88947302  .00000145  00000-0  18279-4 0  9995
2 44855  36.9679 220.9211 0007626 331.2942  28.7362 14.98706529  6959
LEMUR-2-HIMOMANDDAD     
1 44860U 19089J   20026.89337955  .00000028  00000-0  87603-5 0  9997
2 44860  36.9669 220.9520 0007890 327.9092  32.1168 14.98577820  6951
